    {
        "cards": [
            {
                "id": 1,
                "name": "Visa Classic",
                "images": "../src/img/ok1.png",
                "price": "150 000 so`m",
                "transfer": "10 milliongacha bepul pul o'tkazmalri",
                "about": "Virtual karta â€” bu moddiy tashuvchisiz  karta.   Siz uni Hamroh mobil ilovasida  buyurtma qilishingiz  mumkin"
            },
            {
                "id": 2,
                "name": "HUMO",
                "images": "../src/img/okHu.jpg",
                "price": "100 000  so`m",
                "transfer": "5 milliongacha bepul pul o'tkazmalri",
                "about": "HUMO kartasi â€” har bir kun uchun eng yaxshi   yordamchi.Siz uni Hamroh mobil ilovasida  buyurtma qilishingiz  mumkin"
            },
            {
                "id": 3,
                "name": "UZCARD",
                "images": "../src/img/okUz.png",
                "price": "70 000   so`m",
                "transfer": "5 milliongacha bepul pul o'tkazmalri",
                "about": "UZCARD kartasi â€” har bir kun uchun eng yaxshi   yordamchi. Siz uni Hamroh mobil ilovasida  buyurtma qilishingiz  mumkin"
            },
            {
                "id": 4,
                "name": "UZCARD UnionPay",
                "images": "../src/img/Uzp.jpg",
                "price": "120 000  so`m",
                "transfer": "5 milliongacha bepul pul o'tkazmalri",
                "about": "Hamroh mobil ilovasida kartani faollashtirib, plastik   kartani olishni kutmasdan multivalyuta kartadan foydalanishni boshlang"
            },
            {
                "id": 5,
                "name": "HUMO Visa",
                "images": "../src/img/Uzh.png",
                "price": "80 000  so`m",
                "transfer": "10 milliongacha bepul pul o'tkazmalri",
                "about": "Hamroh mobil ilovasida kartani faollashtirib, plastik   kartani olishni kutmasdan multivalyuta kartadan foydalanishni boshlang"
            },
            {
                "id": 6,
                "name": "Visa Platinum",
                "images": "../src/img/VisaP.png",
                "price": "120 000  so`m",
                "transfer": "15 milliongacha bepul pul o'tkazmalri",
                "about": "Visa Platinum bilan yuqori qulaylikdagi sayohatSayohatlar   sug`urtasiga ega chet el valyutasidagi premial karta"
            },
            {
                "id": 7,
                "name": "Visa Infinite",
                "images": "../src/img/visaI.png",
                "price": "200 000  so`m ",
                "transfer": "20 milliongacha bepul pul o'tkazmalri",
                "about": "Visa Infinite bilan xavfsizlikda sayohat qilingSayohatlar   sug`urtasiga eda chet el valyutasidagi premial karta"
            },
            {
                "id": 8,
                "name": "Visa Virtual",
                "images": "../src/img/Visa_Virtual.png",
                "price": "Bepul ",
                "transfer": "5 milliongacha bepul pul o'tkazmalri",
                "about": "Visa Virtual â€” dunyo bo`ylab onlayn xaridlarChet e  l valyutasida virtual kartani bir zumda chiqartirish"
            }
            
        ],
        "omonatlar": [
            {
                "id":1,
                "name":"Oson",
                "haqida":"Nafaqat saqlang, balki daromadingizni ko`paytiring.",
                "muddati":"Cheklovlarsiz to`ldirish birinchi 13 oy",
                "foizi":"Yillik 26%",
                "tuldirish":"Qisman yechish 100 000 000 so`m qoldirgan holdaBatafsil ma`lumot",
                "img":"../src/img/o1.png"
            },
            {
                "id":2,
                "name":"YUQORI DAROMAD",
                "haqida":"Yuqori foiz stavkasiga ega so'mli omonat",
                "muddati":"Omonat muddati - 25 oy",
                "foizi":"Oylik 27%",
                "tuldirish":"Maksimal miqdor - cheksiz",
                "img":"../src/img/o2.png"
            },
            {
                "id":3,
                "name":"24% ega ",
                "haqida":"Oylik tushumga ega yuqori daromadli qisqa muddatli omonat",
                "muddati":"Omonat muddati 6 oy",
                "foizi":"Foiz stavkasi yillik 24% gacha",
                "tuldirish":"Omonatni ochgandan keyin 60 kun ichida omonatingizni to'ldiring",
                "img":"../src/img/o3.png"
            },
            {
                "id":4,
                "name":"SMART 3.0",
                "haqida":"Nafaqat saqlang, balki daromadingizni koâ€˜paytiring.",
                "muddati":"Omonat muddati 24 oy",
                "foizi":" Foiz stavkasi yillik 23% gacha",
                "tuldirish":"Omonatni cheklovlarsiz toâ€˜ldirish  ",
                "img":"../src/img/o8.png"
            },
            {
                "id":5,
                "name":" BALANDDA",
                "haqida":"Yuqori foiz stavkasiga ega valyuta omonati ",
                "muddati":"Omonat muddati 24 oy",
                "foizi":"Yillik 9%",
                "tuldirish":"Omonatni ochgandan keyin 6 oy ichida omonatingizni to'ldiring",
                "img":"../src/img/o5.png"
            },
            {
                "id":6,
                "name":" Bayramona 26%",
                "haqida":"Yanada yuqori yillik stavka",
                "muddati":"Omonat muddati 24 oy",
                "foizi":"Yillik 26%",
                "tuldirish":"Qisman yechish taqdim etilmagan",
                "img":"../src/img/o6.png"
            },
            {
                "id":7,
                "name":"ELITE valyuta ",
                "haqida":"Eng sara mijozlar uchun muddatli omonat ",
                "muddati":"Omonat muddati 2 yil",
                "foizi":"Yillik 8%",
                "tuldirish":"Pasaymaydigan qoldiq â€“ 10 000 AQSh dollari",
                "img":"../src/img/o5.png"
            },
            {
                "id":8,
                "name":"QULAY ",
                "haqida":"Qisman yechib olish imkoniga ega moslashuvchan  omonati",
                "muddati":"Omonat muddati 24 oy",
                "foizi":"Yillik 7%",
                "tuldirish":"Cheklovlarsiz qo'shimcha omonat qo'yish imkoniyati",
                "img":"../src/img/o8.png"
            }

        ],
        "kreditlar":[
            {
                "id":"1",
                "name":"Auto light avtokrediti",
                "miqdori":"600 mln so`mgacha",
                "muddati":"5 yilgacha",
                "stavkasi":"25,99% dan boshlab",
                "image":"../src/img/k5gt.png"
            },
            {
                "id":"2",
                "name":"Iste`mol krediti",
                "miqdori":"200 mln soâ€˜mgacha",
                "muddati":"5 yilgacha",
                "stavkasi":"27% dan boshlab",
                "image":"../src/img/ma.png"
            },
            {
                "id":"3",
                "name":"Xonadon, uy-joyni sotib olish va ta`mirlash uchun kredit",
                "miqdori":"800 mln soâ€˜mgacha",
                "muddati":"20 yilgacha",
                "stavkasi":"21,5% dan boshlab",
                "image":"../src/img/kr5.png"
            },
            {
                "id":"4",
                "name":"Yangi qurilgan uylardan uy-joy xaridi uchun ipoteka krediti",
                "miqdori":"420 mln soâ€˜mgacha",
                "muddati":"20 yilgacha",
                "stavkasi":"17,5%",
                "image":"../src/img/kr4.png"
            },
            {
                "id":"5",
                "name":"Bank o`z mablag`lari hisobidan ipoteka krediti",
                "miqdori":"600 mln soâ€˜mgacha",
                "muddati":"10 yilgacha",
                "stavkasi":"27%",
                "image":"../src/img/kr5.png"
            },
            {
                "id":"6",
                "name":"Taâ€™lim krediti",
                "miqdori":"shartnomaga asosan",
                "muddati":"7 yilgacha",
                "stavkasi":"13,5%",
                "image":"../src/img/kr6.png"
            },
            {
                "id":"7",
                "name":"Quyosh panellarini sotib olish va oâ€˜rnatish uchun isteâ€™mol krediti",
                "miqdori":"75 mln soâ€˜mgacha",
                "muddati":"3 yilgacha",
                "stavkasi":"19,5%",
                "image":"../src/img/kr7.png"
            },
            {
                "id":"8",
                "name":"Biznesga birinchi qadam",
                "miqdori":"85 mln so'mgacha ",
                "muddati":"3 yilgacha",
                "stavkasi":"19,5%",
                "image":"../src/img/kr12.png"
            }
        ],
        "telnumber":[
            { "name": "Afg'oniston", "callingCode": "+93", "flag": "ðŸ‡¦ðŸ‡«" },
            { "name": "Albaniya", "callingCode": "+355", "flag": "ðŸ‡¦ðŸ‡±" },
            { "name": "Algeriya", "callingCode": "+213", "flag": "ðŸ‡©ðŸ‡¿" },
            { "name": "Amerika Samoasi", "callingCode": "+1684", "flag": "ðŸ‡¦ðŸ‡¸" },
            { "name": "Andorra", "callingCode": "+376", "flag": "ðŸ‡¦ðŸ‡©" },
            { "name": "Angola", "callingCode": "+244", "flag": "ðŸ‡¦ðŸ‡´" },
            { "name": "Anguilla", "callingCode": "+1264", "flag": "ðŸ‡¦ðŸ‡®" },
            { "name": "Antigva va Barbuda", "callingCode": "+1268", "flag": "ðŸ‡¦ðŸ‡¬" },
            { "name": "Argentina", "callingCode": "+54", "flag": "ðŸ‡¦ðŸ‡·" },
            { "name": "Armaniston", "callingCode": "+374", "flag": "ðŸ‡¦ðŸ‡²" },
            { "name": "Avstraliya", "callingCode": "+61", "flag": "ðŸ‡¦ðŸ‡º" },
            { "name": "Avstriya", "callingCode": "+43", "flag": "ðŸ‡¦ðŸ‡¹" },
            { "name": "Azerbayjon", "callingCode": "+994", "flag": "ðŸ‡¦ðŸ‡¿" },
            { "name": "Bahamalar", "callingCode": "+1242", "flag": "ðŸ‡§ðŸ‡¸" },
            { "name": "Bahrayn", "callingCode": "+973", "flag": "ðŸ‡§ðŸ‡­" },
            { "name": "Bangladesh", "callingCode": "+880", "flag": "ðŸ‡§ðŸ‡©" },
            { "name": "Barbados", "callingCode": "+1246", "flag": "ðŸ‡§ðŸ‡§" },
            { "name": "Belgiya", "callingCode": "+32", "flag": "ðŸ‡§ðŸ‡ª" },
            { "name": "Beliz", "callingCode": "+501", "flag": "ðŸ‡§ðŸ‡¿" },
            { "name": "Benin", "callingCode": "+229", "flag": "ðŸ‡§ðŸ‡¯" },
            { "name": "Bermud", "callingCode": "+1441", "flag": "ðŸ‡§ðŸ‡²" },
            { "name": "Birlashgan Arab Amirliklari", "callingCode": "+971", "flag": "ðŸ‡¦ðŸ‡ª" },
            { "name": "Birlashgan Qirollik", "callingCode": "+44", "flag": "ðŸ‡¬ðŸ‡§" },
            { "name": "Boliviya", "callingCode": "+591", "flag": "ðŸ‡§ðŸ‡´" },
            { "name": "Bosniya va Gertsegovina", "callingCode": "+387", "flag": "ðŸ‡§ðŸ‡¦" },
            { "name": "Braziliya", "callingCode": "+55", "flag": "ðŸ‡§ðŸ‡·" },
            { "name": "Burgundiya", "callingCode": "+359", "flag": "ðŸ‡§ðŸ‡¬" },
            { "name": "Vengriya", "callingCode": "+36", "flag": "ðŸ‡­ðŸ‡º" },
            { "name": "Vyetnam", "callingCode": "+84", "flag": "ðŸ‡»ðŸ‡³" },
            { "name": "Gana", "callingCode": "+233", "flag": "ðŸ‡¬ðŸ‡­" },
            { "name": "Germaniya", "callingCode": "+49", "flag": "ðŸ‡©ðŸ‡ª" },
            { "name": "Gonduras", "callingCode": "+504", "flag": "ðŸ‡­ðŸ‡³" },
            { "name": "Gonkong", "callingCode": "+852", "flag": "ðŸ‡­ðŸ‡°" },
            { "name": "Greqiya", "callingCode": "+30", "flag": "ðŸ‡¬ðŸ‡·" },
            { "name": "Gruziya", "callingCode": "+995", "flag": "ðŸ‡¬ðŸ‡ª" },
            { "name": "Daniya", "callingCode": "+45", "flag": "ðŸ‡©ðŸ‡°" },
            { "name": "Jamaika", "callingCode": "+1-876", "flag": "ðŸ‡¯ðŸ‡²" },
            { "name": "Janubiy Afrika", "callingCode": "+27", "flag": "ðŸ‡¿ðŸ‡¦" },
            { "name": "Janubiy Koreya", "callingCode": "+82", "flag": "ðŸ‡°ðŸ‡·" },
            { "name": "Yaponiya", "callingCode": "+81", "flag": "ðŸ‡¯ðŸ‡µ" },
            { "name": "Indoneziya", "callingCode": "+62", "flag": "ðŸ‡®ðŸ‡©" },
            { "name": "Hindiston", "callingCode": "+91", "flag": "ðŸ‡®ðŸ‡³" },
            { "name": "Ispaniya", "callingCode": "+34", "flag": "ðŸ‡ªðŸ‡¸" },
            { "name": "Italiya", "callingCode": "+39", "flag": "ðŸ‡®ðŸ‡¹" },
            { "name": "Kazaxiston", "callingCode": "+7", "flag": "ðŸ‡°ðŸ‡¿" },
            { "name": "Kipr", "callingCode": "+357", "flag": "ðŸ‡¨ðŸ‡¾" },
            { "name": "Kipr", "callingCode": "+357", "flag": "ðŸ‡¨ðŸ‡¾" },
            { "name": "Kongo", "callingCode": "+242", "flag": "ðŸ‡¨ðŸ‡©" },
            { "name": "Kuba", "callingCode": "+53", "flag": "ðŸ‡¨ðŸ‡º" },
            { "name": "Latviya", "callingCode": "+371", "flag": "ðŸ‡±ðŸ‡»" },
            { "name": "Lixtenshteyn", "callingCode": "+423", "flag": "ðŸ‡±ðŸ‡®" },
            { "name": "Litva", "callingCode": "+370", "flag": "ðŸ‡±ðŸ‡¹" },
            { "name": "Malaziya", "callingCode": "+60", "flag": "ðŸ‡²ðŸ‡¾" },
            { "name": "Malta", "callingCode": "+356", "flag": "ðŸ‡²ðŸ‡¹" },
            { "name": "Meksika", "callingCode": "+52", "flag": "ðŸ‡²ðŸ‡½" },
            { "name": "Mo'g'uliston", "callingCode": "+976", "flag": "ðŸ‡²ðŸ‡³" },
            { "name": "Norvegiya", "callingCode": "+47", "flag": "ðŸ‡³ðŸ‡´" },
            { "name": "O'zbekiston", "callingCode": "+998", "flag": "ðŸ‡ºðŸ‡¿" },
            { "name": "Polsha", "callingCode": "+48", "flag": "ðŸ‡µðŸ‡±" },
            { "name": "Portugal", "callingCode": "+351", "flag": "ðŸ‡µðŸ‡¹" },
            { "name": "Qozog'iston", "callingCode": "+7", "flag": "ðŸ‡°ðŸ‡¿" },
            { "name": "Qatar", "callingCode": "+974", "flag": "ðŸ‡¶ðŸ‡¦" },
            { "name": "Ruanda", "callingCode": "+250", "flag": "ðŸ‡·ðŸ‡¼" },
            { "name": "Rossiya", "callingCode": "+7", "flag": "ðŸ‡·ðŸ‡º" },
            { "name": "Saudiya Arabistoni", "callingCode": "+966", "flag": "ðŸ‡¸ðŸ‡¦" },
            { "name": "Senegal", "callingCode": "+221", "flag": "ðŸ‡¸ðŸ‡³" },
            { "name": "Serbiya", "callingCode": "+381", "flag": "ðŸ‡·ðŸ‡¸" },
            { "name": "Singapur", "callingCode": "+65", "flag": "ðŸ‡¸ðŸ‡¬" },
            { "name": "Tajikiston", "callingCode": "+992", "flag": "ðŸ‡¹ðŸ‡¯" },
            { "name": "Tanzaniya", "callingCode": "+255", "flag": "ðŸ‡¹ðŸ‡¿" },
            { "name": "Tayvan", "callingCode": "+886", "flag": "ðŸ‡¹ðŸ‡¼" },
            { "name": "Turkiya", "callingCode": "+90", "flag": "ðŸ‡¹ðŸ‡·" },
            { "name": "Ukraina", "callingCode": "+380", "flag": "ðŸ‡ºðŸ‡¦" },
            { "name": "Frantsiya", "callingCode": "+33", "flag": "ðŸ‡«ðŸ‡·" },
            { "name": "Chexiya", "callingCode": "+420", "flag": "ðŸ‡¨ðŸ‡¿" },
            { "name": "Chili", "callingCode": "+56", "flag": "ðŸ‡¨ðŸ‡±" },
            { "name": "Shvetsiya", "callingCode": "+46", "flag": "ðŸ‡¸ðŸ‡ª" },
            { "name": "Shveytsariya", "callingCode": "+41", "flag": "ðŸ‡¨ðŸ‡­" },
            { "name": "Yangi Zelandiya", "callingCode": "+64", "flag": "ðŸ‡³ðŸ‡¿" }
        ],
        "haqida":[
            {
                "id":"1",
                "image":"../src/img/BehruzBank.jpg",
                "name":"Behruz Berdimurodov ",
                "who":"Bank Boshlig'i ",
                "tel":"+998 90 517 76 41"
            },
            {
                "id":"2",
                "image":"../src/img/b11.png",
                "name":"Atabayev Shuhrat Xaldarovich ",
                "who":"Boshqaruv Raisi o'rin bosari",
                "tel":"+998 78 120 17 87"
            },
  
            {
                "id":"3",
                "image":"../src/img/b33.png",
                "name":"Ruziyev Farrux Aralovich",
                "who":"Boshqaruv Raisi o'rinbosari",
                "tel":"+99878 120 17 87"
            },
            {
                "id":"4",
                "image":"../src/img/b44.png",
                "name":"Kutliyev Dilshod Orifovich",
                "who":"Boshqaruv Raisi o'rinbosari",
                "tel":"+99878 120 17 87"
            },
            {
                "id":"5",
                "image":"../src/img/b55.png",
                "name":"Rashidova Gulzoda Atakhanovna",
                "who":"Boshqaruv Raisi o'rinbosari",
                "tel":"+99878 120 17 87"
            },
            {
                "id":"6",
                "image":"../src/img/b66.png",
                "name":"Tashmatov Nuriddin Zubaydullayevich",
                "who":"Yuridik departamenti direktori",
                "tel":"+99878 120 17 87"
            },
            {
                "id":"7",
                "image":"../src/img/b77.png",
                "name":"Sabirov Ruslan Jumanazarovich",
                "who":"Bosh buxgaltir",
                "tel":"+99878 120 17 87"
            }
        ]

    }